{"fetched_at":"2026-03-29T02:12:04Z","count":15717,"tles":[{"name":"JAM-E JAM 1","line1":"1 67757U 26028B   26086.48184517  .00000137  00000+0  00000+0 0  9999","line2":"2 67757   0.4497 287.7045 0002994 121.2085 343.4980  1.00277112   309","category":"Other"}]}